SPACEMOBILE-006         
1 67232U 25309A   26191.47248612  .00000213  00000+0  25498-4 0  9999
2 67232  52.9937 224.9712 0010446 200.1439 159.9144 15.18647033 30136
SPACEMOBILE-008         
1 69589U 26139A   26191.92463880  .00000132  00000+0  24411-4 0  9998
2 69589  52.9942 154.7960 0004851  46.4367 313.7027 15.12798577  3570
SPACEMOBILE-009         
1 69590U 26139B   26191.92629946  .00000086  00000+0  21885-4 0  9997
2 69590  52.9932 154.8015 0005090  41.8205 318.3174 15.12691782  3573
SPACEMOBILE-010         
1 69591U 26139C   26191.92893653  .00000038  00000+0  19202-4 0  9993
2 69591  52.9937 154.8204 0004992  33.2635 326.8669 15.12522765  3589
